$$SOE
2460154.500000000, A.D. 2023-Jul-29 00:00:00.0000, 3.108697972020866E+08, 1.550241886772207E+08, -1.234672804555364E+06,
2460161.500000000, A.D. 2023-Aug-05 00:00:00.0000, 3.164831821132621E+08, 1.646470479791813E+08, -2.099162131121010E+04,
2460168.500000000, A.D. 2023-Aug-12 00:00:00.0000, 3.217581746140547E+08, 1.740940149900809E+08, 1.192718524343371E+06,
2460175.500000000, A.D. 2023-Aug-19 00:00:00.0000, 3.267141796936767E+08, 1.833685281489632E+08, 2.405247976393700E+06,
2460182.500000000, A.D. 2023-Aug-26 00:00:00.0000, 3.313686631974401E+08, 1.924739433132207E+08, 3.615554776056945E+06,
2460189.500000000, A.D. 2023-Sep-02 00:00:00.0000, 3.357374121337097E+08, 2.014135138314781E+08, 4.822736477275103E+06,
2460196.500000000, A.D. 2023-Sep-09 00:00:00.0000, 3.398347518259982E+08, 2.101903781068067E+08, 6.026007398327142E+06,
2460203.500000000, A.D. 2023-Sep-16 00:00:00.0000, 3.436737284830447E+08, 2.188075523536212E+08, 7.224680091852129E+06,
2460210.500000000, A.D. 2023-Sep-23 00:00:00.0000, 3.472662641478862E+08, 2.272679272457232E+08, 8.418150114173427E+06,
2460217.500000000, A.D. 2023-Sep-30 00:00:00.0000, 3.506232888239254E+08, 2.355742685087594E+08, 9.605883532240659E+06,
2460224.500000000, A.D. 2023-Oct-07 00:00:00.0000, 3.537548514898674E+08, 2.437292201015373E+08, 1.078740680871078E+07,
2460231.500000000, A.D. 2023-Oct-14 00:00:00.0000, 3.566702142952748E+08, 2.517353060937307E+08, 1.196229828718351E+07,
2460238.500000000, A.D. 2023-Oct-21 00:00:00.0000, 3.593779357841236E+08, 2.595949324227288E+08, 1.313018078972484E+07,
2460245.500000000, A.D. 2023-Oct-28 00:00:00.0000, 3.618859438411641E+08, 2.673103904855357E+08, 1.429071538761483E+07,
2460252.500000000, A.D. 2023-Nov-04 00:00:00.0000, 3.642015988399240E+08, 2.748838615763316E+08, 1.544359619514582E+07,
2460259.500000000, A.D. 2023-Nov-11 00:00:00.0000, 3.663317485884833E+08, 2.823174214114408E+08, 1.658854595963040E+07,
2460266.500000000, A.D. 2023-Nov-18 00:00:00.0000, 3.682827764621618E+08, 2.896130445636428E+08, 1.772531229216711E+07,
2460273.500000000, A.D. 2023-Nov-25 00:00:00.0000, 3.700606437659934E+08, 2.967726087478305E+08, 1.885366442908815E+07,
2460280.500000000, A.D. 2023-Dec-02 00:00:00.0000, 3.716709271643445E+08, 3.037978988905281E+08, 1.997339043502030E+07,
2460287.500000000, A.D. 2023-Dec-09 00:00:00.0000, 3.731188519339829E+08, 3.106906108856695E+08, 2.108429476565380E+07,
2460294.500000000, A.D. 2023-Dec-16 00:00:00.0000, 3.744093218998134E+08, 3.174523550232903E+08, 2.218619610734928E+07,
2460301.500000000, A.D. 2023-Dec-23 00:00:00.0000, 3.755469468853678E+08, 3.240846597614083E+08, 2.327892547012445E+07,
2460308.500000000, A.D. 2023-Dec-30 00:00:00.0000, 3.765360667471392E+08, 3.305889768793269E+08, 2.436232470291564E+07,
2460315.500000000, A.D. 2024-Jan-06 00:00:00.0000, 3.773807705687408E+08, 3.369666856480471E+08, 2.543624536781479E+07,
2460322.500000000, A.D. 2024-Jan-13 00:00:00.0000, 3.780849144892412E+08, 3.432190942124198E+08, 2.650054750710261E+07,
2460329.500000000, A.D. 2024-Jan-20 00:00:00.0000, 3.786521396485507E+08, 3.493474412714511E+08, 2.755509841936065E+07,
2460336.500000000, A.D. 2024-Jan-27 00:00:00.0000, 3.790858884433110E+08, 3.553528987128342E+08, 2.859977166403326E+07,
2460343.500000000, A.D. 2024-Feb-03 00:00:00.0000, 3.793894188578390E+08, 3.612365742596183E+08, 2.963444623926456E+07,
2460350.500000000, A.D. 2024-Feb-10 00:00:00.0000, 3.795658173157766E+08, 3.669995138457780E+08, 3.065900586922516E+07,
2460357.500000000, A.D. 2024-Feb-17 00:00:00.0000, 3.796180103380493E+08, 3.726427037373313E+08, 3.167333837623210E+07,
2460364.500000000, A.D. 2024-Feb-24 00:00:00.0000, 3.795487751715272E+08, 3.781670724231970E+08, 3.267733512452403E+07,
2460371.500000000, A.D. 2024-Mar-02 00:00:00.0000, 3.793607495302952E+08, 3.835734922532808E+08, 3.367089052058530E+07,
2460378.500000000, A.D. 2024-Mar-09 00:00:00.0000, 3.790564406871654E+08, 3.888627807714496E+08, 3.465390154344824E+07,
2460385.500000000, A.D. 2024-Mar-16 00:00:00.0000, 3.786382343977494E+08, 3.940357019514496E+08, 3.562626727698755E+07,
2460392.500000000, A.D. 2024-Mar-23 00:00:00.0000, 3.781084036298708E+08, 3.990929684550679E+08, 3.658788853708300E+07,
2460399.500000000, A.D. 2024-Mar-30 00:00:00.0000, 3.774691149229140E+08, 4.040352448955836E+08, 3.753866779031754E+07,
2460406.500000000, A.D. 2024-Apr-06 00:00:00.0000, 3.767224326908072E+08, 4.088631487502604E+08, 3.847850905963776E+07,
2460413.500000000, A.D. 2024-Apr-13 00:00:00.0000, 3.758703250720209E+08, 4.135772497693714E+08, 3.940731755422053E+07,
2460420.500000000, A.D. 2024-Apr-20 00:00:00.0000, 3.749146704193229E+08, 4.181780705671822E+08, 4.032499932444388E+07,
2460427.500000000, A.D. 2024-Apr-27 00:00:00.0000, 3.738572629505246E+08, 4.226660878416722E+08, 4.123146103058335E+07,
2460434.500000000, A.D. 2024-May-04 00:00:00.0000, 3.726998176816167E+08, 4.270417335272477E+08, 4.212660975562289E+07,
2460441.500000000, A.D. 2024-May-11 00:00:00.0000, 3.714439749098536E+08, 4.313053957850866E+08, 4.301035282841972E+07,
2460448.500000000, A.D. 2024-May-18 00:00:00.0000, 3.700913043539686E+08, 4.354574198577337E+08, 4.388259764837122E+07,
2460455.500000000, A.D. 2024-May-25 00:00:00.0000, 3.686433089978033E+08, 4.394981087845218E+08, 4.474325150613239E+07,
2460462.500000000, A.D. 2024-Jun-01 00:00:00.0000, 3.671014287157357E+08, 4.434277239231264E+08, 4.559222138815883E+07,
2460469.500000000, A.D. 2024-Jun-08 00:00:00.0000, 3.654670439426579E+08, 4.472464852564688E+08, 4.642941373917735E+07,
2460476.500000000, A.D. 2024-Jun-15 00:00:00.0000, 3.637414798032784E+08, 4.509545720315399E+08, 4.725473418963495E+07,
2460483.500000000, A.D. 2024-Jun-22 00:00:00.0000, 3.619260097097214E+08, 4.545521249052511E+08, 4.806808743588674E+07,
2460490.500000000, A.D. 2024-Jun-29 00:00:00.0000, 3.600218563183325E+08, 4.580392477755039E+08, 4.886937731881350E+07,
2460497.500000000, A.D. 2024-Jul-06 00:00:00.0000, 3.580301925032437E+08, 4.614160068257626E+08, 4.965850665668106E+07,
2460504.500000000, A.D. 2024-Jul-13 00:00:00.0000, 3.559521443088220E+08, 4.646824296052017E+08, 5.043537688457751E+07,
2460511.500000000, A.D. 2024-Jul-20 00:00:00.0000, 3.537887939065534E+08, 4.678385052895626E+08, 5.119988777664217E+07,
2460518.500000000, A.D. 2024-Jul-27 00:00:00.0000, 3.515411819106196E+08, 4.708841851599262E+08, 5.195193723313653E+07,
2460525.500000000, A.D. 2024-Aug-03 00:00:00.0000, 3.492103093351578E+08, 4.738193829214751E+08, 5.269142107698759E+07,
2460532.500000000, A.D. 2024-Aug-10 00:00:00.0000, 3.467971393687994E+08, 4.766439748550481E+08, 5.341823284446242E+07,
2460539.500000000, A.D. 2024-Aug-17 00:00:00.0000, 3.443025990233315E+08, 4.793577998207135E+08, 5.413226356753749E+07,
2460546.500000000, A.D. 2024-Aug-24 00:00:00.0000, 3.417275806934850E+08, 4.819606590888849E+08, 5.483340154359570E+07,
2460553.500000000, A.D. 2024-Aug-31 00:00:00.0000, 3.390729437523057E+08, 4.844523159355607E+08, 5.552153207671750E+07,
2460560.500000000, A.D. 2024-Sep-07 00:00:00.0000, 3.363395165561855E+08, 4.868324951264025E+08, 5.619653716715571E+07,
2460567.500000000, A.D. 2024-Sep-14 00:00:00.0000, 3.335280989531972E+08, 4.891008832837747E+08, 5.685829522218880E+07,
2460574.500000000, A.D. 2024-Sep-21 00:00:00.0000, 3.306394632733986E+08, 4.912571305469052E+08, 5.750668100754476E+07,
2460581.500000000, A.D. 2024-Sep-28 00:00:00.0000, 3.276743533198766E+08, 4.933008502957281E+08, 5.814156561976570E+07,
2460588.500000000, A.D. 2024-Oct-05 00:00:00.0000, 3.246334850372914E+08, 4.952316169394354E+08, 5.876281614260575E+07,
2460595.500000000, A.D. 2024-Oct-12 00:00:00.0000, 3.215175485043228E+08, 4.970489647481055E+08, 5.937029526334161E+07,
2460602.500000000, A.D. 2024-Oct-19 00:00:00.0000, 3.183272095048952E+08, 4.987523874542273E+08, 5.996386098656988E+07,
2460609.500000000, A.D. 2024-Oct-26 00:00:00.0000, 3.150631106511604E+08, 5.003413378205970E+08, 6.054336638207927E+07,
2460616.500000000, A.D. 2024-Nov-02 00:00:00.0000, 3.117258723207985E+08, 5.018152270240089E+08, 6.110865933012533E+07,
2460623.500000000, A.D. 2024-Nov-09 00:00:00.0000, 3.083160935101889E+08, 5.031734238729059E+08, 6.165958225590590E+07,
2460630.500000000, A.D. 2024-Nov-16 00:00:00.0000, 3.048343526339625E+08, 5.044152538563192E+08, 6.219597184975228E+07,
2460637.500000000, A.D. 2024-Nov-23 00:00:00.0000, 3.012812083220856E+08, 5.055399979708524E+08, 6.271765876344398E+07,
2460644.500000000, A.D. 2024-Nov-30 00:00:00.0000, 2.976572004267263E+08, 5.065468912794245E+08, 6.322446725879347E+07,
2460651.500000000, A.D. 2024-Dec-07 00:00:00.0000, 2.939628516622402E+08, 5.074351216184549E+08, 6.371621480311218E+07,
2460658.500000000, A.D. 2024-Dec-14 00:00:00.0000, 2.901986691936951E+08, 5.082038296726100E+08, 6.419271177331665E+07,
2460665.500000000, A.D. 2024-Dec-21 00:00:00.0000, 2.863651438586506E+08, 5.088521091702411E+08, 6.465376137834644E+07,
2460672.500000000, A.D. 2024-Dec-28 00:00:00.0000, 2.824627489977347E+08, 5.093790042264360E+08, 6.509915937505245E+07,
2460679.500000000, A.D. 2025-Jan-04 00:00:00.0000, 2.784919414957424E+08, 5.097835062037058E+08, 6.552869353205803E+07,
2460686.500000000, A.D. 2025-Jan-11 00:00:00.0000, 2.744531632162681E+08, 5.100645517415289E+08, 6.594214314236841E+07,
2460693.500000000, A.D. 2025-Jan-18 00:00:00.0000, 2.703468419162871E+08, 5.102210210261675E+08, 6.633927859164366E+07,
2460700.500000000, A.D. 2025-Jan-25 00:00:00.0000, 2.661733918873882E+08, 5.102517358160180E+08, 6.671986091885686E+07,
2460707.500000000, A.D. 2025-Feb-01 00:00:00.0000, 2.619332145166554E+08, 5.101554571816397E+08, 6.708364134726995E+07,
2460714.500000000, A.D. 2025-Feb-08 00:00:00.0000, 2.576266988296699E+08, 5.099308829686076E+08, 6.743036077962574E+07,
2460721.500000000, A.D. 2025-Feb-15 00:00:00.0000, 2.532542220491861E+08, 5.095766449503922E+08, 6.775974925069577E+07,
2460728.500000000, A.D. 2025-Feb-22 00:00:00.0000, 2.488161502739844E+08, 5.090913055928834E+08, 6.807152531991395E+07,
$$EOE